CCSDS_OMM_VERS = 2.0
CREATION_DATE  = 
ORIGINATOR     = 

OBJECT_NAME    = SL-14 R/B
OBJECT_ID      = 1986-046B
CENTER_NAME    = EARTH
REF_FRAME      = TEME
TIME_SYSTEM    = UTC
MEAN_ELEMENT_THEORY = SGP/SGP4

EPOCH          = 2025-11-21T02:12:09.279648
MEAN_MOTION    = 14.85453528
ECCENTRICITY   = .0021993
INCLINATION    = 82.4824
RA_OF_ASC_NODE = 182.7577
ARG_OF_PERICENTER = 224.4238
MEAN_ANOMALY   = 135.5215

EPHEMERIS_TYPE = 0
CLASSIFICATION_TYPE = U
NORAD_CAT_ID   = 16792
ELEMENT_SET_NO = 999
REV_AT_EPOCH   = 11028
BSTAR          = .53866E-4
MEAN_MOTION_DOT = .49E-5
MEAN_MOTION_DDOT = 0

CCSDS_OMM_VERS = 2.0
CREATION_DATE  = 
ORIGINATOR     = 

OBJECT_NAME    = SL-14 R/B
OBJECT_ID      = 1986-055B
CENTER_NAME    = EARTH
REF_FRAME      = TEME
TIME_SYSTEM    = UTC
MEAN_ELEMENT_THEORY = SGP/SGP4

EPOCH          = 2025-11-20T17:53:32.813952
MEAN_MOTION    = 14.85498440
ECCENTRICITY   = .00184095
INCLINATION    = 82.5219
RA_OF_ASC_NODE = 229.0364
ARG_OF_PERICENTER = 337.3222
MEAN_ANOMALY   = 38.9610

EPHEMERIS_TYPE = 0
CLASSIFICATION_TYPE = U
NORAD_CAT_ID   = 16882
ELEMENT_SET_NO = 999
REV_AT_EPOCH   = 10319
BSTAR          = .70964788E-4
MEAN_MOTION_DOT = .638E-5
MEAN_MOTION_DDOT = 0

CCSDS_OMM_VERS = 2.0
CREATION_DATE  = 
ORIGINATOR     = 

OBJECT_NAME    = AJISAI (EGS)
OBJECT_ID      = 1986-061A
CENTER_NAME    = EARTH
REF_FRAME      = TEME
TIME_SYSTEM    = UTC
MEAN_ELEMENT_THEORY = SGP/SGP4

EPOCH          = 2025-11-21T03:20:58.180992
MEAN_MOTION    = 12.44514102
ECCENTRICITY   = .0011219
INCLINATION    = 50.0101
RA_OF_ASC_NODE = 67.1346
ARG_OF_PERICENTER = 11.5850
MEAN_ANOMALY   = 53.7817

EPHEMERIS_TYPE = 0
CLASSIFICATION_TYPE = U
NORAD_CAT_ID   = 16908
ELEMENT_SET_NO = 999
REV_AT_EPOCH   = 45448
BSTAR          = -.82848E-4
MEAN_MOTION_DOT = -.109E-5
MEAN_MOTION_DDOT = 0

CCSDS_OMM_VERS = 2.0
CREATION_DATE  = 
ORIGINATOR     = 

OBJECT_NAME    = COSMOS 1812
OBJECT_ID      = 1987-003A
CENTER_NAME    = EARTH
REF_FRAME      = TEME
TIME_SYSTEM    = UTC
MEAN_ELEMENT_THEORY = SGP/SGP4

EPOCH          = 2025-11-21T00:54:30.334176
MEAN_MOTION    = 15.70921194
ECCENTRICITY   = .0006055
INCLINATION    = 82.4869
RA_OF_ASC_NODE = 315.4242
ARG_OF_PERICENTER = 119.7197
MEAN_ANOMALY   = 240.4669

EPHEMERIS_TYPE = 0
CLASSIFICATION_TYPE = U
NORAD_CAT_ID   = 17295
ELEMENT_SET_NO = 999
REV_AT_EPOCH   = 12724
BSTAR          = .58976E-3
MEAN_MOTION_DOT = .74111E-3
MEAN_MOTION_DDOT = 0

CCSDS_OMM_VERS = 2.0
CREATION_DATE  = 
ORIGINATOR     = 

OBJECT_NAME    = SL-14 R/B
OBJECT_ID      = 1987-024B
CENTER_NAME    = EARTH
REF_FRAME      = TEME
TIME_SYSTEM    = UTC
MEAN_ELEMENT_THEORY = SGP/SGP4

EPOCH          = 2025-11-21T03:56:59.197920
MEAN_MOTION    = 14.85994073
ECCENTRICITY   = .0016748
INCLINATION    = 82.5292
RA_OF_ASC_NODE = 194.7203
ARG_OF_PERICENTER = 259.6769
MEAN_ANOMALY   = 100.2559

EPHEMERIS_TYPE = 0
CLASSIFICATION_TYPE = U
NORAD_CAT_ID   = 17567
ELEMENT_SET_NO = 999
REV_AT_EPOCH   = 7201
BSTAR          = .5386E-4
MEAN_MOTION_DOT = .495E-5
MEAN_MOTION_DDOT = 0

CCSDS_OMM_VERS = 2.0
CREATION_DATE  = 
ORIGINATOR     = 

OBJECT_NAME    = COSMOS 1833
OBJECT_ID      = 1987-027A
CENTER_NAME    = EARTH
REF_FRAME      = TEME
TIME_SYSTEM    = UTC
MEAN_ELEMENT_THEORY = SGP/SGP4

EPOCH          = 2025-11-21T01:20:08.973024
MEAN_MOTION    = 14.13018295
ECCENTRICITY   = .0021613
INCLINATION    = 70.9132
RA_OF_ASC_NODE = 194.3608
ARG_OF_PERICENTER = 2.2958
MEAN_ANOMALY   = 357.8258

EPHEMERIS_TYPE = 0
CLASSIFICATION_TYPE = U
NORAD_CAT_ID   = 17589
ELEMENT_SET_NO = 999
REV_AT_EPOCH   = 99496
BSTAR          = -.28939E-4
MEAN_MOTION_DOT = -.102E-5
MEAN_MOTION_DDOT = 0

CCSDS_OMM_VERS = 2.0
CREATION_DATE  = 
ORIGINATOR     = 

OBJECT_NAME    = SL-16 R/B
OBJECT_ID      = 1987-027B
CENTER_NAME    = EARTH
REF_FRAME      = TEME
TIME_SYSTEM    = UTC
MEAN_ELEMENT_THEORY = SGP/SGP4

EPOCH          = 2025-11-20T22:06:17.390304
MEAN_MOTION    = 14.17146877
ECCENTRICITY   = .0007257
INCLINATION    = 70.9999
RA_OF_ASC_NODE = 145.6937
ARG_OF_PERICENTER = 282.1553
MEAN_ANOMALY   = 77.8757

EPHEMERIS_TYPE = 0
CLASSIFICATION_TYPE = U
NORAD_CAT_ID   = 17590
ELEMENT_SET_NO = 999
REV_AT_EPOCH   = 99997
BSTAR          = -.71253E-5
MEAN_MOTION_DOT = -.62E-6
MEAN_MOTION_DDOT = 0

CCSDS_OMM_VERS = 2.0
CREATION_DATE  = 
ORIGINATOR     = 

OBJECT_NAME    = SL-14 R/B
OBJECT_ID      = 1987-038B
CENTER_NAME    = EARTH
REF_FRAME      = TEME
TIME_SYSTEM    = UTC
MEAN_ELEMENT_THEORY = SGP/SGP4

EPOCH          = 2025-11-20T15:10:23.934144
MEAN_MOTION    = 14.85231141
ECCENTRICITY   = .00198317
INCLINATION    = 82.5035
RA_OF_ASC_NODE = 39.5202
ARG_OF_PERICENTER = 161.0150
MEAN_ANOMALY   = 199.1810

EPHEMERIS_TYPE = 0
CLASSIFICATION_TYPE = U
NORAD_CAT_ID   = 17912
ELEMENT_SET_NO = 999
REV_AT_EPOCH   = 6304
BSTAR          = .65707613E-4
MEAN_MOTION_DOT = .589E-5
MEAN_MOTION_DDOT = 0

CCSDS_OMM_VERS = 2.0
CREATION_DATE  = 
ORIGINATOR     = 

OBJECT_NAME    = COSMOS 1844
OBJECT_ID      = 1987-041A
CENTER_NAME    = EARTH
REF_FRAME      = TEME
TIME_SYSTEM    = UTC
MEAN_ELEMENT_THEORY = SGP/SGP4

EPOCH          = 2025-11-21T03:14:28.824576
MEAN_MOTION    = 14.14527232
ECCENTRICITY   = .0031161
INCLINATION    = 70.8995
RA_OF_ASC_NODE = 263.1368
ARG_OF_PERICENTER = 190.3257
MEAN_ANOMALY   = 169.7229

EPHEMERIS_TYPE = 0
CLASSIFICATION_TYPE = U
NORAD_CAT_ID   = 17973
ELEMENT_SET_NO = 999
REV_AT_EPOCH   = 98823
BSTAR          = .69404E-4
MEAN_MOTION_DOT = .85E-6
MEAN_MOTION_DDOT = 0

CCSDS_OMM_VERS = 2.0
CREATION_DATE  = 
ORIGINATOR     = 

OBJECT_NAME    = SL-14 R/B
OBJECT_ID      = 1987-055B
CENTER_NAME    = EARTH
REF_FRAME      = TEME
TIME_SYSTEM    = UTC
MEAN_ELEMENT_THEORY = SGP/SGP4

EPOCH          = 2025-11-20T18:18:19.242144
MEAN_MOTION    = 14.85487255
ECCENTRICITY   = .00210838
INCLINATION    = 82.4985
RA_OF_ASC_NODE = 91.6982
ARG_OF_PERICENTER = 17.6477
MEAN_ANOMALY   = 342.5466

EPHEMERIS_TYPE = 0
CLASSIFICATION_TYPE = U
NORAD_CAT_ID   = 18153
ELEMENT_SET_NO = 999
REV_AT_EPOCH   = 5376
BSTAR          = .66335673E-4
MEAN_MOTION_DOT = .599E-5
MEAN_MOTION_DDOT = 0

CCSDS_OMM_VERS = 2.0
CREATION_DATE  = 
ORIGINATOR     = 

OBJECT_NAME    = COSMOS 1867
OBJECT_ID      = 1987-060A
CENTER_NAME    = EARTH
REF_FRAME      = TEME
TIME_SYSTEM    = UTC
MEAN_ELEMENT_THEORY = SGP/SGP4

EPOCH          = 2025-11-21T03:43:18.706368
MEAN_MOTION    = 14.31481259
ECCENTRICITY   = .001368
INCLINATION    = 65.0102
RA_OF_ASC_NODE = 250.6465
ARG_OF_PERICENTER = 268.9127
MEAN_ANOMALY   = 91.0390

EPHEMERIS_TYPE = 0
CLASSIFICATION_TYPE = U
NORAD_CAT_ID   = 18187
ELEMENT_SET_NO = 999
REV_AT_EPOCH   = 440
BSTAR          = .3941E-4
MEAN_MOTION_DOT = .5E-7
MEAN_MOTION_DDOT = 0

CCSDS_OMM_VERS = 2.0
CREATION_DATE  = 
ORIGINATOR     = 

OBJECT_NAME    = COSMOS 1892
OBJECT_ID      = 1987-088A
CENTER_NAME    = EARTH
REF_FRAME      = TEME
TIME_SYSTEM    = UTC
MEAN_ELEMENT_THEORY = SGP/SGP4

EPOCH          = 2025-11-21T06:05:57.448896
MEAN_MOTION    = 16.07621225
ECCENTRICITY   = .0005766
INCLINATION    = 82.4662
RA_OF_ASC_NODE = 67.9651
ARG_OF_PERICENTER = 271.3858
MEAN_ANOMALY   = 88.6763

EPHEMERIS_TYPE = 0
CLASSIFICATION_TYPE = U
NORAD_CAT_ID   = 18421
ELEMENT_SET_NO = 999
REV_AT_EPOCH   = 8787
BSTAR          = .79678E-3
MEAN_MOTION_DOT = .635148E-2
MEAN_MOTION_DDOT = .20303E-3

