SL-14 R/B               
1 16792U 86046B   25325.09177407  .00000490  00000+0  53866-4 0  9995
2 16792  82.4824 182.7577 0021993 224.4238 135.5215 14.85453528110280
SL-14 R/B               
1 16882U 86055B   25324.74551868  .00000638  00000+0  70965-4 0  9996
2 16882  82.5219 229.0364 0018409 337.3222  38.9610 14.85498440103192
AJISAI (EGS)            
1 16908U 86061A   25325.13956228 -.00000109  00000+0 -82848-4 0  9993
2 16908  50.0101  67.1346 0011219  11.5850  53.7817 12.44514102454484
COSMOS 1812             
1 17295U 87003A   25325.03785109  .00074111  00000+0  58976-3 0  9993
2 17295  82.4869 315.4242 0006055 119.7197 240.4669 15.70921194127241
SL-14 R/B               
1 17567U 87024B   25325.16457405  .00000495  00000+0  53860-4 0  9999
2 17567  82.5292 194.7203 0016748 259.6769 100.2559 14.85994073 72014
COSMOS 1833             
1 17589U 87027A   25325.05565941 -.00000102  00000+0 -28939-4 0  9995
2 17589  70.9132 194.3608 0021613   2.2958 357.8258 14.13018295994963
SL-16 R/B               
1 17590U 87027B   25324.92103461 -.00000062  00000+0 -71253-5 0  9990
2 17590  70.9999 145.6937 0007257 282.1553  77.8757 14.17146877999979
SL-14 R/B               
1 17912U 87038B   25324.63222146  .00000589  00000+0  65708-4 0  9999
2 17912  82.5035  39.5202 0019831 161.0150 199.1810 14.85231141 63044
COSMOS 1844             
1 17973U 87041A   25325.13505584  .00000085  00000+0  69404-4 0  9994
2 17973  70.8995 263.1368 0031161 190.3257 169.7229 14.14527232988232
SL-14 R/B               
1 18153U 87055B   25324.76272271  .00000599  00000+0  66336-4 0  9993
2 18153  82.4985  91.6982 0021083  17.6477 342.5466 14.85487255 53767
COSMOS 1867             
1 18187U 87060A   25325.15507762  .00000005  00000+0  39410-4 0  9991
2 18187  65.0102 250.6465 0013680 268.9127  91.0390 14.31481259  4400
COSMOS 1892             
1 18421U 87088A   25325.25413714  .00635148  20303-3  79678-3 0  9999
2 18421  82.4662  67.9651 0005766 271.3858  88.6763 16.07621225 87878
